export const gpsOMMs = [
{
    OBJECT_NAME: "GPS BIIR-2  (PRN 13)",
    OBJECT_ID: "97035A",
    EPOCH: "2025-07-01T00:00:00.699217",
    MEAN_MOTION: 2.00562527,
    ECCENTRICITY: 0.0092065,
    INCLINATION: 55.8152,
    RA_OF_ASC_NODE: 112.2871,
    ARG_OF_PERICENTER: 54.5276,
    MEAN_ANOMALY: 306.319,
    BSTAR: 0.0,
    MEAN_MOTION_DOT: -3e-08,
    MEAN_MOTION_DDOT: 0.0,
    NORAD_CAT_ID: 24876
},
{
    OBJECT_NAME: "GPS BIIR-4  (PRN 20)",
    OBJECT_ID: "00025A",
    EPOCH: "2025-07-01T00:00:00.282563",
    MEAN_MOTION: 2.0054916,
    ECCENTRICITY: 0.0036369,
    INCLINATION: 54.945,
    RA_OF_ASC_NODE: 33.4853,
    ARG_OF_PERICENTER: 232.9146,
    MEAN_ANOMALY: 272.8992,
    BSTAR: 0.0,
    MEAN_MOTION_DOT: -9.8e-07,
    MEAN_MOTION_DDOT: 0.0,
    NORAD_CAT_ID: 26360
},
{
    OBJECT_NAME: "GPS BIIR-5  (PRN 22)",
    OBJECT_ID: "00040A",
    EPOCH: "2025-07-01T00:00:00.537550",
    MEAN_MOTION: 2.00566128,
    ECCENTRICITY: 0.0132898,
    INCLINATION: 54.9344,
    RA_OF_ASC_NODE: 229.0939,
    ARG_OF_PERICENTER: 298.8022,
    MEAN_ANOMALY: 234.0648,
    BSTAR: 0.0,
    MEAN_MOTION_DOT: 1.7e-07,
    MEAN_MOTION_DDOT: 0.0,
    NORAD_CAT_ID: 26407
},
{
    OBJECT_NAME: "GPS BIIR-8  (PRN 16)",
    OBJECT_ID: "03005A",
    EPOCH: "2025-07-02T00:00:00.227920",
    MEAN_MOTION: 2.00553481,
    ECCENTRICITY: 0.0142525,
    INCLINATION: 54.9688,
    RA_OF_ASC_NODE: 228.8765,
    ARG_OF_PERICENTER: 50.2422,
    MEAN_ANOMALY: 38.2297,
    BSTAR: 0.0,
    MEAN_MOTION_DOT: 2.5e-07,
    MEAN_MOTION_DDOT: 0.0,
    NORAD_CAT_ID: 27663
},
{
    OBJECT_NAME: "GPS BIIR-11 (PRN 19)",
    OBJECT_ID: "04009A",
    EPOCH: "2025-07-01T00:00:00.488957",
    MEAN_MOTION: 2.00567029,
    ECCENTRICITY: 0.0106201,
    INCLINATION: 55.1244,
    RA_OF_ASC_NODE: 289.8355,
    ARG_OF_PERICENTER: 162.031,
    MEAN_ANOMALY: 272.5027,
    BSTAR: 0.0,
    MEAN_MOTION_DOT: -8e-07,
    MEAN_MOTION_DDOT: 0.0,
    NORAD_CAT_ID: 28190
},
{
    OBJECT_NAME: "GPS BIIR-13 (PRN 02)",
    OBJECT_ID: "04045A",
    EPOCH: "2025-07-01T00:00:00.850080",
    MEAN_MOTION: 2.0056222,
    ECCENTRICITY: 0.0165797,
    INCLINATION: 55.3169,
    RA_OF_ASC_NODE: 338.9917,
    ARG_OF_PERICENTER: 304.2063,
    MEAN_ANOMALY: 90.5134,
    BSTAR: 0.0,
    MEAN_MOTION_DOT: -1.01e-06,
    MEAN_MOTION_DDOT: 0.0,
    NORAD_CAT_ID: 28474
},
{
    OBJECT_NAME: "GPS BIIRM-1 (PRN 17)",
    OBJECT_ID: "05038A",
    EPOCH: "2025-06-29T00:00:00.347745",
    MEAN_MOTION: 2.00559417,
    ECCENTRICITY: 0.0132695,
    INCLINATION: 55.171,
    RA_OF_ASC_NODE: 287.3962,
    ARG_OF_PERICENTER: 290.2585,
    MEAN_ANOMALY: 62.3534,
    BSTAR: 0.0,
    MEAN_MOTION_DOT: -6.5e-07,
    MEAN_MOTION_DDOT: 0.0,
    NORAD_CAT_ID: 28874
},
{
    OBJECT_NAME: "GPS BIIRM-2 (PRN 31)",
    OBJECT_ID: "06042A",
    EPOCH: "2025-07-01T00:00:00.790653",
    MEAN_MOTION: 2.0056184,
    ECCENTRICITY: 0.0104351,
    INCLINATION: 54.6869,
    RA_OF_ASC_NODE: 165.2431,
    ARG_OF_PERICENTER: 46.8746,
    MEAN_ANOMALY: 170.9061,
    BSTAR: 0.0,
    MEAN_MOTION_DOT: 7.4e-07,
    MEAN_MOTION_DDOT: 0.0,
    NORAD_CAT_ID: 29486
},
{
    OBJECT_NAME: "GPS BIIRM-3 (PRN 12)",
    OBJECT_ID: "06052A",
    EPOCH: "2025-07-01T00:00:00.918001",
    MEAN_MOTION: 2.00564098,
    ECCENTRICITY: 0.0084768,
    INCLINATION: 55.0113,
    RA_OF_ASC_NODE: 227.8953,
    ARG_OF_PERICENTER: 86.6275,
    MEAN_ANOMALY: 274.4105,
    BSTAR: 0.0,
    MEAN_MOTION_DOT: 2.3e-07,
    MEAN_MOTION_DDOT: 0.0,
    NORAD_CAT_ID: 29601
},
{
    OBJECT_NAME: "GPS BIIRM-4 (PRN 15)",
    OBJECT_ID: "07047A",
    EPOCH: "2025-07-01T00:00:00.725263",
    MEAN_MOTION: 2.00571551,
    ECCENTRICITY: 0.0162053,
    INCLINATION: 53.8375,
    RA_OF_ASC_NODE: 94.5364,
    ARG_OF_PERICENTER: 81.8663,
    MEAN_ANOMALY: 279.9819,
    BSTAR: 0.0,
    MEAN_MOTION_DOT: -3.8e-07,
    MEAN_MOTION_DDOT: 0.0,
    NORAD_CAT_ID: 32260
},
{
    OBJECT_NAME: "GPS BIIRM-5 (PRN 29)",
    OBJECT_ID: "07062A",
    EPOCH: "2025-07-01T00:00:00.786498",
    MEAN_MOTION: 2.0056912,
    ECCENTRICITY: 0.0032429,
    INCLINATION: 55.3163,
    RA_OF_ASC_NODE: 288.2187,
    ARG_OF_PERICENTER: 159.0876,
    MEAN_ANOMALY: 13.8098,
    BSTAR: 0.0,
    MEAN_MOTION_DOT: -7.9e-07,
    MEAN_MOTION_DDOT: 0.0,
    NORAD_CAT_ID: 32384
},
{
    OBJECT_NAME: "GPS BIIRM-6 (PRN 07)",
    OBJECT_ID: "08012A",
    EPOCH: "2025-07-02T00:00:00.139222",
    MEAN_MOTION: 2.00559132,
    ECCENTRICITY: 0.019989,
    INCLINATION: 54.4662,
    RA_OF_ASC_NODE: 163.9012,
    ARG_OF_PERICENTER: 243.5579,
    MEAN_ANOMALY: 114.3645,
    BSTAR: 0.0,
    MEAN_MOTION_DOT: 7.5e-07,
    MEAN_MOTION_DDOT: 0.0,
    NORAD_CAT_ID: 32711
},
{
    OBJECT_NAME: "GPS BIIRM-8 (PRN 05)",
    OBJECT_ID: "09043A",
    EPOCH: "2025-07-01T00:00:00.636154",
    MEAN_MOTION: 2.00574974,
    ECCENTRICITY: 0.0055749,
    INCLINATION: 55.9748,
    RA_OF_ASC_NODE: 41.2508,
    ARG_OF_PERICENTER: 78.9375,
    MEAN_ANOMALY: 292.0346,
    BSTAR: 0.0,
    MEAN_MOTION_DOT: -9.3e-07,
    MEAN_MOTION_DDOT: 0.0,
    NORAD_CAT_ID: 35752
},
{
    OBJECT_NAME: "GPS BIIF-1  (PRN 25)",
    OBJECT_ID: "10022A",
    EPOCH: "2025-07-01T00:00:00.455026",
    MEAN_MOTION: 2.0057074,
    ECCENTRICITY: 0.0120511,
    INCLINATION: 54.3357,
    RA_OF_ASC_NODE: 222.6947,
    ARG_OF_PERICENTER: 64.0587,
    MEAN_ANOMALY: 297.1752,
    BSTAR: 0.0,
    MEAN_MOTION_DOT: 2.7e-07,
    MEAN_MOTION_DDOT: 0.0,
    NORAD_CAT_ID: 36585
},
{
    OBJECT_NAME: "GPS BIIF-3  (PRN 24)",
    OBJECT_ID: "12053A",
    EPOCH: "2025-07-01T00:00:00.820052",
    MEAN_MOTION: 2.00563227,
    ECCENTRICITY: 0.0166812,
    INCLINATION: 53.5413,
    RA_OF_ASC_NODE: 157.9486,
    ARG_OF_PERICENTER: 60.8841,
    MEAN_ANOMALY: 300.753,
    BSTAR: 0.0,
    MEAN_MOTION_DOT: 6.7e-07,
    MEAN_MOTION_DDOT: 0.0,
    NORAD_CAT_ID: 38833
},
{
    OBJECT_NAME: "GPS BIIF-4  (PRN 27)",
    OBJECT_ID: "13023A",
    EPOCH: "2025-07-01T00:00:00.185462",
    MEAN_MOTION: 2.00560998,
    ECCENTRICITY: 0.0132927,
    INCLINATION: 54.7858,
    RA_OF_ASC_NODE: 283.2534,
    ARG_OF_PERICENTER: 48.1453,
    MEAN_ANOMALY: 313.0148,
    BSTAR: 0.0,
    MEAN_MOTION_DOT: -7.2e-07,
    MEAN_MOTION_DDOT: 0.0,
    NORAD_CAT_ID: 39166
},
{
    OBJECT_NAME: "GPS BIIF-5  (PRN 30)",
    OBJECT_ID: "14008A",
    EPOCH: "2025-07-01T00:00:00.184017",
    MEAN_MOTION: 2.00564594,
    ECCENTRICITY: 0.00788,
    INCLINATION: 53.6184,
    RA_OF_ASC_NODE: 163.6321,
    ARG_OF_PERICENTER: 226.1223,
    MEAN_ANOMALY: 133.2072,
    BSTAR: 0.0,
    MEAN_MOTION_DOT: 6.6e-07,
    MEAN_MOTION_DDOT: 0.0,
    NORAD_CAT_ID: 39533
},
{
    OBJECT_NAME: "GPS BIIF-6  (PRN 06)",
    OBJECT_ID: "14026A",
    EPOCH: "2025-07-01T00:00:00.462700",
    MEAN_MOTION: 2.00573211,
    ECCENTRICITY: 0.0034686,
    INCLINATION: 56.6429,
    RA_OF_ASC_NODE: 345.1595,
    ARG_OF_PERICENTER: 319.673,
    MEAN_ANOMALY: 40.0719,
    BSTAR: 0.0,
    MEAN_MOTION_DOT: -9.9e-07,
    MEAN_MOTION_DDOT: 0.0,
    NORAD_CAT_ID: 39741
},
{
    OBJECT_NAME: "GPS BIIF-7  (PRN 09)",
    OBJECT_ID: "14045A",
    EPOCH: "2025-07-01T00:00:00.552003",
    MEAN_MOTION: 2.00562179,
    ECCENTRICITY: 0.0029977,
    INCLINATION: 55.126,
    RA_OF_ASC_NODE: 102.4521,
    ARG_OF_PERICENTER: 115.8756,
    MEAN_ANOMALY: 244.4385,
    BSTAR: 0.0,
    MEAN_MOTION_DOT: -2.2e-07,
    MEAN_MOTION_DDOT: 0.0,
    NORAD_CAT_ID: 40105
},
{
    OBJECT_NAME: "GPS BIIF-8  (PRN 03)",
    OBJECT_ID: "14068A",
    EPOCH: "2025-06-29T00:00:00.926241",
    MEAN_MOTION: 2.00554689,
    ECCENTRICITY: 0.0061528,
    INCLINATION: 56.7323,
    RA_OF_ASC_NODE: 44.5564,
    ARG_OF_PERICENTER: 67.3034,
    MEAN_ANOMALY: 293.4036,
    BSTAR: 0.0,
    MEAN_MOTION_DOT: -8.6e-07,
    MEAN_MOTION_DDOT: 0.0,
    NORAD_CAT_ID: 40294
},
{
    OBJECT_NAME: "GPS BIIF-9  (PRN 26)",
    OBJECT_ID: "15013A",
    EPOCH: "2025-07-01T00:00:00.062489",
    MEAN_MOTION: 2.00572387,
    ECCENTRICITY: 0.0099154,
    INCLINATION: 53.2339,
    RA_OF_ASC_NODE: 218.7038,
    ARG_OF_PERICENTER: 35.1937,
    MEAN_ANOMALY: 325.5186,
    BSTAR: 0.0,
    MEAN_MOTION_DOT: 2.8e-07,
    MEAN_MOTION_DDOT: 0.0,
    NORAD_CAT_ID: 40534
},
{
    OBJECT_NAME: "GPS BIIF-10 (PRN 08)",
    OBJECT_ID: "15033A",
    EPOCH: "2025-07-01T00:00:00.723483",
    MEAN_MOTION: 2.0057412,
    ECCENTRICITY: 0.0104028,
    INCLINATION: 54.2647,
    RA_OF_ASC_NODE: 281.5176,
    ARG_OF_PERICENTER: 25.2066,
    MEAN_ANOMALY: 335.3332,
    BSTAR: 0.0,
    MEAN_MOTION_DOT: -7.2e-07,
    MEAN_MOTION_DDOT: 0.0,
    NORAD_CAT_ID: 40730
},
{
    OBJECT_NAME: "GPS BIIF-11 (PRN 10)",
    OBJECT_ID: "15062A",
    EPOCH: "2025-07-01T00:00:00.778800",
    MEAN_MOTION: 2.00567012,
    ECCENTRICITY: 0.0103684,
    INCLINATION: 56.71,
    RA_OF_ASC_NODE: 44.3406,
    ARG_OF_PERICENTER: 228.0729,
    MEAN_ANOMALY: 131.0914,
    BSTAR: 0.0,
    MEAN_MOTION_DOT: -9e-07,
    MEAN_MOTION_DDOT: 0.0,
    NORAD_CAT_ID: 41019
},
{
    OBJECT_NAME: "GPS BIIF-12 (PRN 32)",
    OBJECT_ID: "16007A",
    EPOCH: "2025-06-29T00:00:00.866746",
    MEAN_MOTION: 2.00569172,
    ECCENTRICITY: 0.0087898,
    INCLINATION: 55.3077,
    RA_OF_ASC_NODE: 103.4433,
    ARG_OF_PERICENTER: 242.9185,
    MEAN_ANOMALY: 116.1847,
    BSTAR: 0.0,
    MEAN_MOTION_DOT: -1.3e-07,
    MEAN_MOTION_DDOT: 0.0,
    NORAD_CAT_ID: 41328
},
{
    OBJECT_NAME: "GPS BIII-1  (PRN 04)",
    OBJECT_ID: "18109A",
    EPOCH: "2025-07-01T00:00:00.770160",
    MEAN_MOTION: 2.00571498,
    ECCENTRICITY: 0.0033629,
    INCLINATION: 55.4731,
    RA_OF_ASC_NODE: 106.0243,
    ARG_OF_PERICENTER: 196.5747,
    MEAN_ANOMALY: 350.9306,
    BSTAR: 0.0,
    MEAN_MOTION_DOT: -1.6e-07,
    MEAN_MOTION_DDOT: 0.0,
    NORAD_CAT_ID: 43873
},
{
    OBJECT_NAME: "GPS BIII-2  (PRN 18)",
    OBJECT_ID: "19056A",
    EPOCH: "2025-07-01T00:00:00.888233",
    MEAN_MOTION: 2.00562642,
    ECCENTRICITY: 0.0053421,
    INCLINATION: 55.7791,
    RA_OF_ASC_NODE: 345.0512,
    ARG_OF_PERICENTER: 193.3196,
    MEAN_ANOMALY: 338.2962,
    BSTAR: 0.0,
    MEAN_MOTION_DOT: -1e-06,
    MEAN_MOTION_DDOT: 0.0,
    NORAD_CAT_ID: 44506
},
{
    OBJECT_NAME: "GPS BIII-3  (PRN 23)",
    OBJECT_ID: "20041A",
    EPOCH: "2025-06-29T00:00:00.988091",
    MEAN_MOTION: 2.00566375,
    ECCENTRICITY: 0.0053938,
    INCLINATION: 56.4266,
    RA_OF_ASC_NODE: 42.6387,
    ARG_OF_PERICENTER: 199.0645,
    MEAN_ANOMALY: 344.9193,
    BSTAR: 0.0,
    MEAN_MOTION_DOT: -8.8e-07,
    MEAN_MOTION_DDOT: 0.0,
    NORAD_CAT_ID: 45854
},
{
    OBJECT_NAME: "GPS BIII-4  (PRN 14)",
    OBJECT_ID: "20078A",
    EPOCH: "2025-07-01T00:00:00.508493",
    MEAN_MOTION: 2.00558586,
    ECCENTRICITY: 0.0060701,
    INCLINATION: 54.056,
    RA_OF_ASC_NODE: 225.0034,
    ARG_OF_PERICENTER: 202.4323,
    MEAN_ANOMALY: 327.7828,
    BSTAR: 0.0,
    MEAN_MOTION_DOT: 2.3e-07,
    MEAN_MOTION_DDOT: 0.0,
    NORAD_CAT_ID: 46826
},
{
    OBJECT_NAME: "GPS BIII-5  (PRN 11)",
    OBJECT_ID: "21054A",
    EPOCH: "2025-07-01T00:00:00.010005",
    MEAN_MOTION: 2.00563034,
    ECCENTRICITY: 0.0020376,
    INCLINATION: 55.3118,
    RA_OF_ASC_NODE: 346.5618,
    ARG_OF_PERICENTER: 225.824,
    MEAN_ANOMALY: 135.4674,
    BSTAR: 0.0,
    MEAN_MOTION_DOT: -1.02e-06,
    MEAN_MOTION_DDOT: 0.0,
    NORAD_CAT_ID: 48859
},
{
    OBJECT_NAME: "GPS BIII-6  (PRN 28)",
    OBJECT_ID: "23009A",
    EPOCH: "2025-06-30T00:00:00.209941",
    MEAN_MOTION: 2.00568063,
    ECCENTRICITY: 0.0003701,
    INCLINATION: 55.0967,
    RA_OF_ASC_NODE: 162.3434,
    ARG_OF_PERICENTER: 329.0256,
    MEAN_ANOMALY: 213.7916,
    BSTAR: 0.0,
    MEAN_MOTION_DOT: 5.8e-07,
    MEAN_MOTION_DDOT: 0.0,
    NORAD_CAT_ID: 55268
},
{
    OBJECT_NAME: "GPS BIII-7  (PRN 01)",
    OBJECT_ID: "24242A",
    EPOCH: "2025-07-01T00:00:00.793615",
    MEAN_MOTION: 2.0055906,
    ECCENTRICITY: 0.0005893,
    INCLINATION: 54.971,
    RA_OF_ASC_NODE: 348.3748,
    ARG_OF_PERICENTER: 349.7411,
    MEAN_ANOMALY: 333.5773,
    BSTAR: 0.0,
    MEAN_MOTION_DOT: -1.02e-06,
    MEAN_MOTION_DDOT: 0.0,
    NORAD_CAT_ID: 62339
},
{
    OBJECT_NAME: "GPS BIII-8  (PRN 21)",
    OBJECT_ID: "25116A",
    EPOCH: "2025-06-27T00:00:00.339336",
    MEAN_MOTION: 2.00570136,
    ECCENTRICITY: 0.0001432,
    INCLINATION: 54.978,
    RA_OF_ASC_NODE: 45.4413,
    ARG_OF_PERICENTER: 300.701,
    MEAN_ANOMALY: 235.6146,
    BSTAR: 0.0,
    MEAN_MOTION_DOT: -7.7e-07,
    MEAN_MOTION_DDOT: 0.0,
    NORAD_CAT_ID: 64202
}
];
